ANGOSAT 2               
1 54033U 22131A   26182.16139560  .00000146  00000+0  00000+0 0  9993
2 54033   0.0218  95.4205 0000393 356.7403 268.1513  1.00272414 13614
EUTELSAT HOTBIRD 13F    
1 54048U 22134A   26181.01878809  .00000098  00000+0  00000+0 0  9997
2 54048   0.0536 290.3962 0001792  79.1998 288.2887  1.00271674 13500
LDPE-2                  
1 54219U 22144A   26181.61468545  .00000104  00000+0  00000+0 0  9994
2 54219   5.6437  63.5429 0002223  94.8348 196.8699  1.00539349 11972
EUTELSAT HOTBIRD 13G    
1 54225U 22146A   26180.73566600  .00000097  00000+0  00000+0 0  9997
2 54225   0.0645 217.9646 0001958 297.8038  39.8734  1.00262523  7596
ZHONGXING-19            
1 54230U 22148A   26181.53834434 -.00000070  00000+0  00000+0 0  9999
2 54230   0.0397  81.2762 0002925  35.8417 158.5090  1.00272797 13510
GALAXY 31 (G-31)        
1 54243U 22153A   26182.06160829  .00000024  00000+0  00000+0 0  9996
2 54243   0.0160  57.1188 0001603  39.5934  83.5776  1.00271917  7270
GALAXY 32 (G-32)        
1 54244U 22153B   26181.99665568 -.00000164  00000+0  00000+0 0  9994
2 54244   0.0073  17.7858 0002060  32.4715 136.5967  1.00272750 13282
EUTELSAT 10B            
1 54259U 22157A   26181.91364176  .00000078  00000+0  00000+0 0  9990
2 54259   0.0623  95.8880 0002340  13.6840 148.2934  1.00270397 13168
GALAXY 35 (G-35)        
1 54741U 22170A   26182.13835001  .00000000  00000+0  00000+0 0  9991
2 54741   0.0245  52.6840 0002373  56.0281 127.1799  1.00270742 13032
GALAXY 36 (G-36)        
1 54742U 22170B   26182.17442948 -.00000175  00000+0  00000+0 0  9994
2 54742   0.0081 311.9254 0002869 141.1932 159.9019  1.00270762 12916
METEOSAT-12 (MTG-I1)    
1 54743U 22170C   26182.15671558  .00000004  00000+0  00000+0 0  9994
2 54743   0.7533  25.1015 0003664  73.6731 236.5905  1.00276135 13114
SHIJIAN-23 (SJ-23)      
1 55131U 23002A   26181.69608786 -.00000303  00000+0  00000+0 0  9995
2 55131   3.7505  78.1509 0003583 279.4693 310.8229  1.00084361 12647
APSTAR-6E               
1 55239U 23005A   26181.68434565 -.00000306  00000+0  00000+0 0  9991
2 55239   0.0502 228.0167 0001129 292.6493 138.4482  1.00276647 18829
USA 342                 
1 55263U 23008A   26178.74678580  .00000000  00000+0  00000+0 0  9991
2 55263   0.0068  21.1845 0000542 140.6398  46.7067  1.00269221 12624
LDPE-3A                 
1 55264U 23008B   26181.76787063 -.00000031  00000+0  00000+0 0  9990
2 55264   2.3815  81.5078 0001568  55.2796 254.4668  0.99150317 11941
ELEKTRO-L 4             
1 55506U 23016A   26181.76497959 -.00000048  00000+0  00000+0 0  9998
2 55506   0.0898 142.6642 0001030  39.5441 177.7862  1.00271669 12477
AMAZONAS NEXUS          
1 55508U 23017A   26180.71899793 -.00000271  00000+0  00000+0 0  9995
2 55508   0.0360  39.1050 0005131  37.6615  38.8677  1.00269774  7170
ZHONGXING-26            
1 55686U 23023A   26180.68456625 -.00000342  00000+0  00000+0 0  9997
2 55686   0.0638  69.5474 0003458  28.5668 191.2311  1.00272817 12356
LUCH-5X (OLYMP-K 2)     
1 55841U 23031A   26181.67009603  .00000044  00000+0  00000+0 0  9997
2 55841   0.0302  85.5386 0001146 146.8989 349.4864  1.00270316 12070
GAOFEN-13 02            
1 55912U 23036A   26182.15739175 -.00000209  00000+0  00000+0 0  9993
2 55912   1.0228   2.8227 0003560 337.8325 143.4123  1.00268280 12236
SES-18                  
1 55970U 23038A   26180.56802275 -.00000090  00000+0  00000+0 0  9992
2 55970   0.0453 271.8954 0000799 237.1209 230.0202  1.00271951 12227
SES-19                  
1 55971U 23038B   26182.17544903  .00000098  00000+0  00000+0 0  9990
2 55971   0.0110  17.9778 0002002  85.4829 104.0419  1.00274112 12235
INTELSAT 40E (IS-40E)   
1 56174U 23052A   26181.99665568  .00000000  00000+0  00000+0 0  9995
2 56174   0.0227  49.5600 0002577  82.2406  55.0560  1.00268679 11960
VIASAT-3 F1             
1 56370U 23060A   26180.64212567  .00000000  00000+0  00000+0 0  9990
2 56370   0.0215   4.6677 0000950 105.1301 310.1042  1.00270271 11559
ARCTURUS                
1 56371U 23060B   26182.03061479 -.00000219  00000+0  00000+0 0  9993
2 56371   2.8095  79.7674 0000461 169.5879 123.1723  1.00598759 11593
GS-1                    
1 56372U 23060C   26180.72441301 -.00000215  00000+0  00000+0 0  9990
2 56372   2.7571  79.6877 0003644 279.8001 268.5552  1.00271102  7661
BEIDOU-3 G4             
1 56564U 23066A   26182.11780767 -.00000270  00000+0  00000+0 0  9997
2 56564   0.4723 334.9543 0004991 176.0685 310.5975  1.00269484 11535
ARABSAT-7B (BADR-8)     
1 56757U 23075A   26182.01934808  .00000155  00000+0  00000+0 0  9998
2 56757   0.0736  29.4300 0004015   3.9633 278.6455  1.00272104 11253
NVS-01 (IRNSS-1J)       
1 56759U 23076A   26182.03988817 -.00000324  00000+0  00000+0 0  9991
2 56759   2.1349 243.7241 0002854   9.7131 169.5949  1.00272763 11256
NUSANTARA TIGA (SATRIA) 
1 57045U 23086A   26182.18575307 -.00000225  00000+0  00000+0 0  9993
2 57045   0.0364   2.8262 0002512 340.4828 148.8019  1.00268980  9908
H2SAT (HEINRICH HERTZ)  
1 57213U 23093A   26181.01636141  .00000013  00000+0  00000+0 0  9997
2 57213   0.0299  97.6220 0001348  30.7649 156.3068  1.00271793 11046
SYRACUSE 4B             
1 57214U 23093B   26182.15550225  .00000000  00000+0  00000+0 0  9998
2 57214   0.0239  36.7631 0000271 121.7486 170.2275  1.00269618  7105
